#aV2010  7  5  0  0   .00000000      96 DD+AD WGS84 FIT  NGA
## 1591  86400.00000000   900.00000000 55382  .0000000000000
+   31     1  2  3  4  5  6  7  8  9 10 11 12 13 14 15 16 17
+         18 19 20 21 22 23 24 26 27 28 29 30 31 32  0  0  0
+          0  0  0  0  0  0  0  0  0  0  0  0  0  0  0  0  0
+          0  0  0  0  0  0  0  0  0  0  0  0  0  0  0  0  0
+          0  0  0  0  0  0  0  0  0  0  0  0  0  0  0  0  0
++         0  0  0  0  0  0  0  0  0  0  0  0  0  0  0  0  0
++         0  0  0  0  0  0  0  0  0  0  0  0  0  0  0  0  0
++         0  0  0  0  0  0  0  0  0  0  0  0  0  0  0  0  0
++         0  0  0  0  0  0  0  0  0  0  0  0  0  0  0  0  0
++         0  0  0  0  0  0  0  0  0  0  0  0  0  0  0  0  0
%c cc cc ccc ccc cccc cccc cccc cccc ccccc ccccc ccccc ccccc
%c cc cc ccc ccc cccc cccc cccc cccc ccccc ccccc ccccc ccccc
%f  0.0000000  0.000000000  0.00000000000  0.000000000000000
%f  0.0000000  0.000000000  0.00000000000  0.000000000000000
%i    0    0    0    0      0      0      0      0         0
%i    0    0    0    0      0      0      0      0         0
/*      NGA, ST. LOUIS,MO.                                  
/*   EPHEMERIS COMPUTED FROM  3 DAYS OF DATA                
/* CCCCCCCCCCCCCCCCCCCCCCCCCCCCCCCCCCCCCCCCCCCCCCCCCCCCCCCCC
/* CCCCCCCCCCCCCCCCCCCCCCCCCCCCCCCCCCCCCCCCCCCCCCCCCCCCCCCCC
*  2010  7  5 19 45   .00000000                                                 
P  1  17505.939794  -2500.140349  19757.351548   -137.958360                    
V  1  17903.145309  17868.617252 -13373.543036      -.040010                    
P  2 -20507.138427  13753.916047   9124.835254    270.418896                    
V  2 -12301.443883    317.294835 -28543.942300       .031156                    
P  3   9948.221823 -22020.055865  10256.667736    577.624283                    
V  3   2344.095225  14053.860521  27270.563036       .049658                    
P  4 -26008.107441   5242.572339  -3630.950438    118.616542                    
V  4   3246.131872  -4296.706007 -30576.738803       .080551                    
P  5  -8542.566215  12799.243005  21630.046425    -11.841152                    
V  5 -20466.294012 -18389.007116   2879.188671      -.028810                    
P  6  13621.165609 -18027.969092  14011.684902    583.729061                    
V  6   -232.970331  17848.858386  23646.685640      -.138124                    
P  7 -16597.678253  -8466.505439  18984.638337     -1.587512                    
V  7  22648.789175  -8144.185710  15983.860870      -.001803                    
P  8 -24776.026133  -1065.719110  10212.976421      6.027790                    
V  8  12171.544589  -4048.045439  28548.888843       .000801                    
P  9  -4003.898948  16303.356077 -21123.981474     16.557669                    
V  9 -24368.125478   7623.208767  10818.754353       .022260                    
P 10 -17630.795739   2365.235121  19641.154532    -46.294396                    
V 10 -17380.846820 -18376.315246 -12922.315487      -.009452                    
P 11  -2888.515113 -17332.995737 -20120.936800    -73.635659                    
V 11  22494.324527 -11822.949625   7420.459690      -.025093                    
P 12   8408.190529  21036.135113 -13948.316291    -96.756753                    
V 12 -14122.510523 -10825.186922 -24612.298094       .039921                    
P 13  -6744.642401 -18223.690627  17948.771216    302.223197                    
V 13   7705.444764 -21717.306951 -19045.016630      -.006796                    
P 14  15322.311851  -2164.306707 -21426.489610     64.592091                    
V 14  -6807.505021  26638.775765  -7641.218848       .041125                    
P 15  -5869.918108  25828.895856    687.383993   -244.597936                    
V 15  -2913.304622  -1483.979238  31653.178877       .062572                    
P 16  13220.709512  -7790.866854  21742.994302    -86.840932                    
V 16  19468.105293  19356.131094  -4635.643345      -.036521                    
P 17 -15379.414135   -580.442786 -21521.761486    160.349850                    
V 17   6283.724708 -26884.388286  -3954.319604       .019324                    
P 18  19957.765370  17756.964485  -1477.011996     78.974999                    
V 18   -673.332957   3852.641168  30898.590520       .023448                    
P 19   7446.127186 -25307.779022   -547.907663    -47.411334                    
V 19   3264.221237    241.841261  31887.581792      -.028994                    
P 20 -10097.431633 -21119.960328 -12724.503334     53.739868                    
V 20  13920.138803   8345.115524 -25110.649672      -.005178                    
P 21  20045.889167   6967.134601  16684.147804    -71.879144                    
V 21 -19007.098508   7604.437163  19450.630126      -.026600                    
P 22  21858.261556   8590.981790 -12329.970126    168.157462                    
V 22   9359.417634  13238.156948  25373.428925      -.009652                    
P 23  -1853.829546 -24090.940667  10620.610030    364.226376                    
V 23   5574.466772 -12683.694941 -28057.618650      -.016090                    
P 24  25704.203932  -6168.340361    520.010130    301.932415                    
V 24    290.544603   3437.387908  31628.237579       .031633                    
P 26  -8220.067539  24937.449142   1185.277750    -76.688200                    
V 26  -1548.493330  -2747.965266  32646.619600      -.060032                    
P 27  -8806.220739  16338.575749 -18250.833034    167.408502                    
V 27 -23607.107734   7119.467997  17305.287053       .035344                    
P 28 -21558.681956 -11658.646467 -10107.610346    -11.489723                    
V 28  -8039.775674 -10965.479762  28176.912617       .011106                    
P 29   7528.215989  18881.403853  17210.254883    132.437118                    
V 29  -7077.636488  20540.451740 -19501.094337       .026334                    
P 30  17463.126642  19488.381451  -5100.962896    258.005285                    
V 30  -6348.230965  -1737.798902 -30756.653232       .033618                    
P 31  25612.736894  -7328.422191   -751.043854    -26.483277                    
V 31   -508.553061   2413.117497 -31975.903661       .024911                    
P 32  -2417.722057 -20236.105513 -16876.784796    -31.176273                    
V 32  16038.027852  15087.109093 -19651.680302      -.086695                    
EOF
